[
  {
    "OBJECT_NAME": "STARLINK-32675",
    "OBJECT_ID": "24229S",
    "EPOCH": "2025-11-11T02:10:17.519520",
    "MEAN_MOTION": 15.27628411,
    "ECCENTRICITY": 0.0001384,
    "INCLINATION": 42.9982,
    "RA_OF_ASC_NODE": 220.4591,
    "ARG_OF_PERICENTER": 267.9575,
    "MEAN_ANOMALY": 92.1118,
    "EPHEMERIS_TYPE": 0,
    "CLASSIFICATION_TYPE": "U",
    "NORAD_CAT_ID": 62208,
    "ELEMENT_SET_NO": 999,
    "REV_AT_EPOCH": 5242,
    "BSTAR": 0.0010255,
    "MEAN_MOTION_DOT": 0.00028108,
    "MEAN_MOTION_DDOT": 0.0,
    "TLE_LINE1": "1 62208U 24229S   25315.09048055  .00028108  00000+0  10255-2 0  9997",
    "TLE_LINE2": "2 62208  42.9982 220.4591 0001384 267.9575  92.1118 15.27628411 52426",
    "COMMENT": "Grouped by shell and plane from TLE"
  },
  {
    "OBJECT_NAME": "STARLINK-32671",
    "OBJECT_ID": "24229T",
    "EPOCH": "2025-11-11T03:02:06.251136",
    "MEAN_MOTION": 15.27630295,
    "ECCENTRICITY": 8.58e-05,
    "INCLINATION": 42.9984,
    "RA_OF_ASC_NODE": 220.7293,
    "ARG_OF_PERICENTER": 323.877,
    "MEAN_ANOMALY": 36.2024,
    "EPHEMERIS_TYPE": 0,
    "CLASSIFICATION_TYPE": "U",
    "NORAD_CAT_ID": 62209,
    "ELEMENT_SET_NO": 999,
    "REV_AT_EPOCH": 5242,
    "BSTAR": 0.0011348999999999999,
    "MEAN_MOTION_DOT": 0.00031148,
    "MEAN_MOTION_DDOT": 0.0,
    "TLE_LINE1": "1 62209U 24229T   25315.12646124  .00031148  00000+0  11349-2 0  9996",
    "TLE_LINE2": "2 62209  42.9984 220.7293 0000858 323.8770  36.2024 15.27630295 52423",
    "COMMENT": "Grouped by shell and plane from TLE"
  },
  {
    "OBJECT_NAME": "STARLINK-32670",
    "OBJECT_ID": "24229U",
    "EPOCH": "2025-11-11T03:33:20.323296",
    "MEAN_MOTION": 15.27668758,
    "ECCENTRICITY": 0.0001947,
    "INCLINATION": 43.0004,
    "RA_OF_ASC_NODE": 220.0344,
    "ARG_OF_PERICENTER": 290.2132,
    "MEAN_ANOMALY": 69.851,
    "EPHEMERIS_TYPE": 0,
    "CLASSIFICATION_TYPE": "U",
    "NORAD_CAT_ID": 62210,
    "ELEMENT_SET_NO": 999,
    "REV_AT_EPOCH": 5243,
    "BSTAR": 0.0020334,
    "MEAN_MOTION_DOT": 0.00056274,
    "MEAN_MOTION_DDOT": 0.0,
    "TLE_LINE1": "1 62210U 24229U   25315.14815189  .00056274  00000+0  20334-2 0  9990",
    "TLE_LINE2": "2 62210  43.0004 220.0344 0001947 290.2132  69.8510 15.27668758 52437",
    "COMMENT": "Grouped by shell and plane from TLE"
  },
  {
    "OBJECT_NAME": "STARLINK-32669",
    "OBJECT_ID": "24229X",
    "EPOCH": "2025-11-11T02:47:17.678976",
    "MEAN_MOTION": 15.27638406,
    "ECCENTRICITY": 0.0001589,
    "INCLINATION": 43.0003,
    "RA_OF_ASC_NODE": 220.648,
    "ARG_OF_PERICENTER": 256.1794,
    "MEAN_ANOMALY": 103.8881,
    "EPHEMERIS_TYPE": 0,
    "CLASSIFICATION_TYPE": "U",
    "NORAD_CAT_ID": 62213,
    "ELEMENT_SET_NO": 999,
    "REV_AT_EPOCH": 5242,
    "BSTAR": 0.0013621,
    "MEAN_MOTION_DOT": 0.00037477,
    "MEAN_MOTION_DDOT": 0.0,
    "TLE_LINE1": "1 62213U 24229X   25315.11617684  .00037477  00000+0  13621-2 0  9995",
    "TLE_LINE2": "2 62213  43.0003 220.6480 0001589 256.1794 103.8881 15.27638406 52429",
    "COMMENT": "Grouped by shell and plane from TLE"
  },
  {
    "OBJECT_NAME": "STARLINK-32666",
    "OBJECT_ID": "24229Y",
    "EPOCH": "2025-11-11T02:56:32.463744",
    "MEAN_MOTION": 15.27636152,
    "ECCENTRICITY": 0.0001288,
    "INCLINATION": 43.0001,
    "RA_OF_ASC_NODE": 220.6986,
    "ARG_OF_PERICENTER": 266.5883,
    "MEAN_ANOMALY": 93.4821,
    "EPHEMERIS_TYPE": 0,
    "CLASSIFICATION_TYPE": "U",
    "NORAD_CAT_ID": 62214,
    "ELEMENT_SET_NO": 999,
    "REV_AT_EPOCH": 5242,
    "BSTAR": 0.0011187,
    "MEAN_MOTION_DOT": 0.00030703,
    "MEAN_MOTION_DDOT": 0.0,
    "TLE_LINE1": "1 62214U 24229Y   25315.12259796  .00030703  00000+0  11187-2 0  9993",
    "TLE_LINE2": "2 62214  43.0001 220.6986 0001288 266.5883  93.4821 15.27636152 52423",
    "COMMENT": "Grouped by shell and plane from TLE"
  },
  {
    "OBJECT_NAME": "STARLINK-32662",
    "OBJECT_ID": "24229Z",
    "EPOCH": "2025-11-11T02:36:11.587680",
    "MEAN_MOTION": 15.27624394,
    "ECCENTRICITY": 0.0001408,
    "INCLINATION": 42.9973,
    "RA_OF_ASC_NODE": 220.5888,
    "ARG_OF_PERICENTER": 257.4109,
    "MEAN_ANOMALY": 102.6585,
    "EPHEMERIS_TYPE": 0,
    "CLASSIFICATION_TYPE": "U",
    "NORAD_CAT_ID": 62215,
    "ELEMENT_SET_NO": 999,
    "REV_AT_EPOCH": 5242,
    "BSTAR": 0.0010163,
    "MEAN_MOTION_DOT": 0.00027848,
    "MEAN_MOTION_DDOT": 0.0,
    "TLE_LINE1": "1 62215U 24229Z   25315.10846745  .00027848  00000+0  10163-2 0  9997",
    "TLE_LINE2": "2 62215  42.9973 220.5888 0001408 257.4109 102.6585 15.27624394 52429",
    "COMMENT": "Grouped by shell and plane from TLE"
  },
  {
    "OBJECT_NAME": "STARLINK-32747",
    "OBJECT_ID": "25008P",
    "EPOCH": "2025-11-11T02:21:58.360032",
    "MEAN_MOTION": 15.27638556,
    "ECCENTRICITY": 0.0003501,
    "INCLINATION": 43.0022,
    "RA_OF_ASC_NODE": 227.9964,
    "ARG_OF_PERICENTER": 237.7747,
    "MEAN_ANOMALY": 122.2765,
    "EPHEMERIS_TYPE": 0,
    "CLASSIFICATION_TYPE": "U",
    "NORAD_CAT_ID": 62600,
    "ELEMENT_SET_NO": 999,
    "REV_AT_EPOCH": 4742,
    "BSTAR": 0.0015731999999999999,
    "MEAN_MOTION_DOT": 0.00043366,
    "MEAN_MOTION_DDOT": 0.0,
    "TLE_LINE1": "1 62600U 25008P   25315.09859213  .00043366  00000+0  15732-2 0  9993",
    "TLE_LINE2": "2 62600  43.0022 227.9964 0003501 237.7747 122.2765 15.27638556 47422",
    "COMMENT": "Grouped by shell and plane from TLE"
  },
  {
    "OBJECT_NAME": "STARLINK-32767",
    "OBJECT_ID": "25008Q",
    "EPOCH": "2025-11-11T03:04:19.618176",
    "MEAN_MOTION": 15.27622666,
    "ECCENTRICITY": 0.0001653,
    "INCLINATION": 42.9996,
    "RA_OF_ASC_NODE": 227.3457,
    "ARG_OF_PERICENTER": 272.3361,
    "MEAN_ANOMALY": 87.7301,
    "EPHEMERIS_TYPE": 0,
    "CLASSIFICATION_TYPE": "U",
    "NORAD_CAT_ID": 62601,
    "ELEMENT_SET_NO": 999,
    "REV_AT_EPOCH": 4749,
    "BSTAR": 0.0010603,
    "MEAN_MOTION_DOT": 0.00029069,
    "MEAN_MOTION_DDOT": 0.0,
    "TLE_LINE1": "1 62601U 25008Q   25315.12800484  .00029069  00000+0  10603-2 0  9990",
    "TLE_LINE2": "2 62601  42.9996 227.3457 0001653 272.3361  87.7301 15.27622666 47498",
    "COMMENT": "Grouped by shell and plane from TLE"
  },
  {
    "OBJECT_NAME": "STARLINK-32769",
    "OBJECT_ID": "25008R",
    "EPOCH": "2025-11-11T03:09:52.990848",
    "MEAN_MOTION": 15.27624448,
    "ECCENTRICITY": 3.66e-05,
    "INCLINATION": 42.995,
    "RA_OF_ASC_NODE": 227.3738,
    "ARG_OF_PERICENTER": 358.6451,
    "MEAN_ANOMALY": 1.44,
    "EPHEMERIS_TYPE": 0,
    "CLASSIFICATION_TYPE": "U",
    "NORAD_CAT_ID": 62602,
    "ELEMENT_SET_NO": 999,
    "REV_AT_EPOCH": 4749,
    "BSTAR": 0.0011807,
    "MEAN_MOTION_DOT": 0.00032414,
    "MEAN_MOTION_DDOT": 0.0,
    "TLE_LINE1": "1 62602U 25008R   25315.13186332  .00032414  00000+0  11807-2 0  9996",
    "TLE_LINE2": "2 62602  42.9950 227.3738 0000366 358.6451   1.4400 15.27624448 47492",
    "COMMENT": "Grouped by shell and plane from TLE"
  },
  {
    "OBJECT_NAME": "STARLINK-32778",
    "OBJECT_ID": "25008S",
    "EPOCH": "2025-11-11T02:38:38.400288",
    "MEAN_MOTION": 15.27622909,
    "ECCENTRICITY": 7.09e-05,
    "INCLINATION": 42.9982,
    "RA_OF_ASC_NODE": 228.0785,
    "ARG_OF_PERICENTER": 273.3889,
    "MEAN_ANOMALY": 86.6881,
    "EPHEMERIS_TYPE": 0,
    "CLASSIFICATION_TYPE": "U",
    "NORAD_CAT_ID": 62603,
    "ELEMENT_SET_NO": 999,
    "REV_AT_EPOCH": 4742,
    "BSTAR": 0.00090904,
    "MEAN_MOTION_DOT": 0.0002487,
    "MEAN_MOTION_DDOT": 0.0,
    "TLE_LINE1": "1 62603U 25008S   25315.11016667  .00024870  00000+0  90904-3 0  9991",
    "TLE_LINE2": "2 62603  42.9982 228.0785 0000709 273.3889  86.6881 15.27622909 47428",
    "COMMENT": "Grouped by shell and plane from TLE"
  },
  {
    "OBJECT_NAME": "STARLINK-32710",
    "OBJECT_ID": "25008T",
    "EPOCH": "2025-11-11T04:18:07.361568",
    "MEAN_MOTION": 15.27635566,
    "ECCENTRICITY": 0.0002186,
    "INCLINATION": 42.998,
    "RA_OF_ASC_NODE": 226.8634,
    "ARG_OF_PERICENTER": 253.0387,
    "MEAN_ANOMALY": 107.0225,
    "EPHEMERIS_TYPE": 0,
    "CLASSIFICATION_TYPE": "U",
    "NORAD_CAT_ID": 62604,
    "ELEMENT_SET_NO": 999,
    "REV_AT_EPOCH": 4744,
    "BSTAR": 0.0012479,
    "MEAN_MOTION_DOT": 0.00034298,
    "MEAN_MOTION_DDOT": 0.0,
    "TLE_LINE1": "1 62604U 25008T   25315.17925187  .00034298  00000+0  12479-2 0  9999",
    "TLE_LINE2": "2 62604  42.9980 226.8634 0002186 253.0387 107.0225 15.27635566 47440",
    "COMMENT": "Grouped by shell and plane from TLE"
  },
  {
    "OBJECT_NAME": "STARLINK-32742",
    "OBJECT_ID": "25008U",
    "EPOCH": "2025-11-11T02:49:32.808576",
    "MEAN_MOTION": 15.27601785,
    "ECCENTRICITY": 0.0001566,
    "INCLINATION": 42.9988,
    "RA_OF_ASC_NODE": 227.2623,
    "ARG_OF_PERICENTER": 272.4261,
    "MEAN_ANOMALY": 87.6411,
    "EPHEMERIS_TYPE": 0,
    "CLASSIFICATION_TYPE": "U",
    "NORAD_CAT_ID": 62605,
    "ELEMENT_SET_NO": 999,
    "REV_AT_EPOCH": 4748,
    "BSTAR": 0.0017749999999999999,
    "MEAN_MOTION_DOT": 0.00048941,
    "MEAN_MOTION_DDOT": 0.0,
    "TLE_LINE1": "1 62605U 25008U   25315.11774084  .00048941  00000+0  17750-2 0  9999",
    "TLE_LINE2": "2 62605  42.9988 227.2623 0001566 272.4261  87.6411 15.27601785 47489",
    "COMMENT": "Grouped by shell and plane from TLE"
  },
  {
    "OBJECT_NAME": "STARLINK-32783",
    "OBJECT_ID": "25008V",
    "EPOCH": "2025-11-11T03:15:25.785504",
    "MEAN_MOTION": 15.27628434,
    "ECCENTRICITY": 0.000113,
    "INCLINATION": 43.0,
    "RA_OF_ASC_NODE": 227.4059,
    "ARG_OF_PERICENTER": 257.4842,
    "MEAN_ANOMALY": 102.5883,
    "EPHEMERIS_TYPE": 0,
    "CLASSIFICATION_TYPE": "U",
    "NORAD_CAT_ID": 62606,
    "ELEMENT_SET_NO": 999,
    "REV_AT_EPOCH": 4743,
    "BSTAR": 0.0012767000000000002,
    "MEAN_MOTION_DOT": 0.0003509,
    "MEAN_MOTION_DDOT": 0.0,
    "TLE_LINE1": "1 62606U 25008V   25315.13571511  .00035090  00000+0  12767-2 0  9996",
    "TLE_LINE2": "2 62606  43.0000 227.4059 0001130 257.4842 102.5883 15.27628434 47432",
    "COMMENT": "Grouped by shell and plane from TLE"
  }
]